NORAD_CAT_ID,OBJECT_NAME,OBJECT_TYPE,EPOCH,MEAN_MOTION,ECCENTRICITY,INCLINATION,RA_OF_ASC_NODE,ARG_OF_PERICENTER,MEAN_ANOMALY,BSTAR,MEAN_MOTION_DOT,MEAN_MOTION_DDOT,TLE_LINE0,TLE_LINE1,TLE_LINE2,SEMIMAJOR_AXIS,PERIOD,APOGEE,PERIGEE,DECAYED
53591.0,STARLINK-4674,PAYLOAD,2024-05-12 07:44:29,15.087892,0.0001457,53.2186,355.7274,102.5946,257.5209,-0.0015618,-0.00025023,0.0,0 STARLINK-4674,1 53591U 22104D   24133.32256721 -.00025023  00000-0 -15618-2 0  9990,2 53591  53.2186 355.7274 0001457 102.5946 257.5209 15.08789200 95360,6918.036,95.441,540.909,538.893,0.0
53591.0,STARLINK-4674,PAYLOAD,2024-05-12 20:27:36,15.08778747,0.0001951,53.2185,353.3488,86.0496,274.0719,0.00029118,4.341e-05,0.0,0 STARLINK-4674,1 53591U 22104D   24133.85250925  .00004341  00000-0  29118-3 0  9997,2 53591  53.2185 353.3488 0001951  86.0496 274.0719 15.08778747 94403,6918.068,95.441,541.282,538.583,0.0
53591.0,STARLINK-4674,PAYLOAD,2024-05-12 22:02:59,15.08802206,0.00012,53.2178,353.0499,90.5856,269.5273,0.00082203,0.00012805,0.0,0 STARLINK-4674,1 53591U 22104D   24133.91874541  .00012805  00000-0  82203-3 0  9998,2 53591  53.2178 353.0499 0001200  90.5856 269.5273 15.08802206 95459,6917.996,95.44,540.691,539.031,0.0
53591.0,STARLINK-4674,PAYLOAD,2024-05-12 23:38:23,15.0880031,0.0001327,53.2178,352.7526,81.7703,278.344,0.0010486,0.00016422,0.0,0 STARLINK-4674,1 53591U 22104D   24133.98498945  .00016422  00000-0  10486-2 0  9997,2 53591  53.2178 352.7526 0001327  81.7703 278.3440 15.08800310 94423,6918.002,95.44,540.785,538.949,0.0
53591.0,STARLINK-4674,PAYLOAD,2024-05-13 07:35:19,15.08809351,0.0001245,53.2174,351.2665,88.2878,271.8257,0.0012019,0.00018876,0.0,0 STARLINK-4674,1 53591U 22104D   24134.31619682  .00018876  00000-0  12019-2 0  9997,2 53591  53.2174 351.2665 0001245  88.2878 271.8257 15.08809351 95510,6917.974,95.439,540.7,538.978,0.0
53591.0,STARLINK-4674,PAYLOAD,2024-05-13 20:18:24,15.08828568,2.63e-05,53.2174,348.8871,218.5303,141.567,0.00039865,6.061e-05,0.0,0 STARLINK-4674,1 53591U 22104D   24134.84611281  .00006061  00000-0  39865-3 0  9994,2 53591  53.2174 348.8871 0000263 218.5303 141.5670 15.08828568 95592,6917.915,95.438,539.962,539.598,0.0
53591.0,STARLINK-4674,PAYLOAD,2024-05-14 07:26:05,15.08855188,0.0001003,53.2163,346.8065,90.3823,269.7284,0.0010299,0.00016148,0.0,0 STARLINK-4674,1 53591U 22104D   24135.30978757  .00016148  00000-0  10299-2 0  9996,2 53591  53.2163 346.8065 0001003  90.3823 269.7284 15.08855188 94624,6917.834,95.437,540.393,539.005,0.0
53591.0,STARLINK-4674,PAYLOAD,2024-05-14 13:47:37,15.08862641,0.0001338,53.2166,345.619,81.7129,278.4015,0.00063846,9.894e-05,0.0,0 STARLINK-4674,1 53591U 22104D   24135.57474356  .00009894  00000-0  63846-3 0  9998,2 53591  53.2166 345.6190 0001338  81.7129 278.4015 15.08862641 95708,6917.811,95.436,540.602,538.751,0.0
53591.0,STARLINK-4674,PAYLOAD,2024-05-15 13:38:25,15.08814082,4.51e-05,53.2199,341.1556,152.7514,207.3502,-0.00077905,-0.00012655,0.0,0 STARLINK-4674,1 53591U 22104D   24136.56835147 -.00012655  00000-0 -77905-3 0  9999,2 53591  53.2199 341.1556 0000451 152.7514 207.3502 15.08814082 94812,6917.96,95.439,540.137,539.513,0.0
53591.0,STARLINK-4674,PAYLOAD,2024-05-15 19:59:57,15.08851504,0.000132,53.217,339.9661,107.5578,252.5558,0.00059068,9.128e-05,0.0,0 STARLINK-4674,1 53591U 22104D   24136.83330600  .00009128  00000-0  59068-3 0  9992,2 53591  53.2170 339.9661 0001320 107.5578 252.5558 15.08851504 94854,6917.845,95.437,540.623,538.797,0.0
53591.0,STARLINK-4674,PAYLOAD,2024-05-16 07:07:39,15.0885778,0.0001126,53.2162,337.8843,99.7514,260.3605,0.00087272,0.00013635,0.0,0 STARLINK-4674,1 53591U 22104D   24137.29698411  .00013635  00000-0  87272-3 0  9996,2 53591  53.2162 337.8843 0001126  99.7514 260.3605 15.08857780 95965,6917.826,95.436,540.47,538.912,0.0
53591.0,STARLINK-4674,PAYLOAD,2024-05-16 19:50:43,15.08877273,0.0001157,53.2166,335.5062,81.4942,278.6181,0.0011009,0.00017294,0.0,0 STARLINK-4674,1 53591U 22104D   24137.82689352  .00017294  00000-0  11009-2 0  9998,2 53591  53.2166 335.5062 0001157  81.4942 278.6181 15.08877273 96044,6917.766,95.435,540.432,538.831,0.0
53591.0,STARLINK-4674,PAYLOAD,2024-05-16 23:01:29,15.08888379,0.0001399,53.2172,334.9116,81.1225,278.9926,0.0012168,0.00019156,0.0,0 STARLINK-4674,1 53591U 22104D   24137.95936827  .00019156  00000-0  12168-2 0  9990,2 53591  53.2172 334.9116 0001399  81.1225 278.9926 15.08888379 95029,6917.733,95.434,540.565,538.63,0.0
53591.0,STARLINK-4674,PAYLOAD,2024-05-17 13:19:57,15.08847497,0.0003147,53.2168,332.233,86.5086,273.6266,-0.00040764,-6.772e-05,0.0,0 STARLINK-4674,1 53591U 22104D   24138.55553151 -.00006772  00000-0 -40764-3 0  9998,2 53591  53.2168 332.2330 0003147  86.5086 273.6266 15.08847497 95115,6917.857,95.437,541.9,537.545,0.0
53591.0,STARLINK-4674,PAYLOAD,2024-05-17 19:41:31,15.08829319,0.0003351,53.2185,331.044,87.8928,272.2448,1.9408e-05,2e-07,0.0,0 STARLINK-4674,1 53591U 22104D   24138.82049841  .00000020  00000-0  19408-4 0  9994,2 53591  53.2185 331.0440 0003351  87.8928 272.2448 15.08829319 95153,6917.913,95.438,542.096,537.46,0.0
53591.0,STARLINK-4674,PAYLOAD,2024-05-18 11:35:21,15.08848048,0.0002381,53.2162,328.0719,89.7827,270.3438,9.4166e-05,1.211e-05,0.0,0 STARLINK-4674,1 53591U 22104D   24139.48289135  .00001211  00000-0  94166-4 0  9996,2 53591  53.2162 328.0719 0002381  89.7827 270.3438 15.08848048 95253,6917.856,95.437,541.368,538.074,0.0
53591.0,STARLINK-4674,PAYLOAD,2024-05-18 19:32:16,15.08874642,0.0001496,53.2158,326.5846,71.961,288.1545,0.00089767,0.00014041,0.0,0 STARLINK-4674,1 53591U 22104D   24139.81408366  .00014041  00000-0  89767-3 0  9997,2 53591  53.2158 326.5846 0001496  71.9610 288.1545 15.08874642 95302,6917.775,95.435,540.674,538.605,0.0
53591.0,STARLINK-4674,PAYLOAD,2024-05-19 05:04:36,15.08830597,0.0002631,53.2176,324.7999,88.711,271.4184,-0.00037788,-6.296e-05,0.0,0 STARLINK-4674,1 53591U 22104D   24140.21153463 -.00006296  00000-0 -37788-3 0  9999,2 53591  53.2176 324.7999 0002631  88.7110 271.4184 15.08830597 95365,6917.909,95.438,541.594,537.954,0.0
53591.0,STARLINK-4674,PAYLOAD,2024-05-20 11:16:56,15.08833371,0.0001295,53.216,319.1501,104.958,255.1556,-5.4674e-05,-1.158e-05,0.0,0 STARLINK-4674,1 53591U 22104D   24141.47010129 -.00001158  00000-0 -54674-4 0  9995,2 53591  53.2160 319.1501 0001295 104.9580 255.1556 15.08833371 95558,6917.901,95.438,540.662,538.87,0.0
53591.0,STARLINK-4674,PAYLOAD,2024-05-20 19:13:52,15.08858186,0.0001428,53.2173,317.6654,106.2224,253.8926,0.0014001,0.00022076,0.0,0 STARLINK-4674,1 53591U 22104D   24141.80130201  .00022076  00000-0  14001-2 0  9994,2 53591  53.2173 317.6654 0001428 106.2224 253.8926 15.08858186 95605,6917.825,95.436,540.678,538.702,0.0
53591.0,STARLINK-4674,PAYLOAD,2024-05-21 19:04:39,15.08849225,0.0001286,53.2175,313.2041,101.7881,258.3255,0.00039578,6.018e-05,0.0,0 STARLINK-4674,1 53591U 22104D   24142.79490150  .00006018  00000-0  39578-3 0  9990,2 53591  53.2175 313.2041 0001286 101.7881 258.3255 15.08849225 95755,6917.852,95.437,540.607,538.828,0.0
53591.0,STARLINK-4674,PAYLOAD,2024-05-22 10:58:31,15.08844772,0.0001436,53.2177,310.2371,79.594,280.5214,0.00032345,4.864e-05,0.0,0 STARLINK-4674,1 53591U 22104D   24143.45730374  .00004864  00000-0  32345-3 0  9991,2 53591  53.2177 310.2371 0001436  79.5940 280.5214 15.08844772 95850,6917.866,95.437,540.724,538.737,0.0
53591.0,STARLINK-4674,PAYLOAD,2024-05-23 14:00:04,15.08842336,0.0001487,53.2183,305.1799,74.1719,285.9437,0.00021745,3.175e-05,0.0,0 STARLINK-4674,1 53591U 22104D   24144.58338587  .00003175  00000-0  21745-3 0  9992,2 53591  53.2183 305.1799 0001487  74.1719 285.9437 15.08842336 97060,6917.873,95.437,540.767,538.71,0.0
53591.0,STARLINK-4674,PAYLOAD,2024-05-23 15:35:27,15.08850417,0.0001353,53.2184,304.8818,76.981,283.1333,-0.00012764,-2.319e-05,0.0,0 STARLINK-4674,1 53591U 22104D   24144.64962064 -.00002319  00000-0 -12764-3 0  9994,2 53591  53.2184 304.8818 0001353  76.9810 283.1333 15.08850417 96033,6917.849,95.437,540.65,538.778,0.0
53591.0,STARLINK-4674,PAYLOAD,2024-05-23 20:21:36,15.08850747,0.0001214,53.2185,303.9855,97.213,262.9,0.0003259,4.904e-05,0.0,0 STARLINK-4674,1 53591U 22104D   24144.84834143  .00004904  00000-0  32590-3 0  9991,2 53591  53.2185 303.9855 0001214  97.2130 262.9000 15.08850747 97103,6917.848,95.437,540.552,538.873,0.0
53591.0,STARLINK-4674,PAYLOAD,2024-05-24 13:50:51,15.08841538,0.0002255,53.2156,300.7096,129.8291,230.2899,0.00014907,2.085e-05,0.0,0 STARLINK-4674,1 53591U 22104D   24145.57698350  .00002085  00000-0  14907-3 0  9990,2 53591  53.2156 300.7096 0002255 129.8291 230.2899 15.08841538 97213,6917.876,95.437,541.301,538.181,0.0
53591.0,STARLINK-4674,PAYLOAD,2024-05-24 20:12:23,15.08859421,0.0001525,53.2159,299.5251,121.1758,238.9384,0.00043637,6.667e-05,0.0,0 STARLINK-4674,1 53591U 22104D   24145.84193652  .00006667  00000-0  43637-3 0  9997,2 53591  53.2159 299.5251 0001525 121.1758 238.9384 15.08859421 96219,6917.821,95.436,540.741,538.631,0.0
53591.0,STARLINK-4674,PAYLOAD,2024-05-25 13:41:38,15.08835964,0.0001435,53.2173,296.2554,94.5202,265.5954,-1.084e-05,-4.6e-06,0.0,0 STARLINK-4674,1 53591U 22104D   24146.57058768 -.00000460  00000-0 -10840-4 0  9994,2 53591  53.2173 296.2554 0001435  94.5202 265.5954 15.08835964 96329,6917.893,95.438,540.75,538.765,0.0
53591.0,STARLINK-4674,PAYLOAD,2024-05-26 15:07:49,15.08837118,0.000135,53.2182,291.5,86.3692,273.7454,0.00037183,5.634e-05,0.0,0 STARLINK-4674,1 53591U 22104D   24147.63043160  .00005634  00000-0  37183-3 0  9996,2 53591  53.2182 291.5000 0001350  86.3692 273.7454 15.08837118 97523,6917.889,95.438,540.688,538.82,0.0
53591.0,STARLINK-4674,PAYLOAD,2024-05-26 19:53:58,15.08851086,0.0001748,53.2172,290.6084,118.114,242.0029,0.00028248,4.212e-05,0.0,0 STARLINK-4674,1 53591U 22104D   24147.82914403  .00004212  00000-0  28248-3 0  9997,2 53591  53.2172 290.6084 0001748 118.1140 242.0029 15.08851086 96512,6917.847,95.437,540.921,538.502,0.0
